[{"OBJECT_NAME":"IRIDIUM 102","OBJECT_ID":"2017-003D","EPOCH":"2026-03-09T16:58:10.285536","MEAN_MOTION":14.3421763,"ECCENTRICITY":0.00022591,"INCLINATION":86.3971,"RA_OF_ASC_NODE":130.0382,"ARG_OF_PERICENTER":95.9369,"MEAN_ANOMALY":264.2084,"EPHEMERIS_TYPE":0,"CLASSIFICATION_TYPE":"U","NORAD_CAT_ID":41920,"ELEMENT_SET_NO":999,"REV_AT_EPOCH":47902,"BSTAR":3.634738e-6,"MEAN_MOTION_DOT":3.0e-7,"MEAN_MOTION_DDOT":0},{"OBJECT_NAME":"SL-8 R\/B","OBJECT_ID":"1988-053B","EPOCH":"2026-03-09T14:20:34.971936","MEAN_MOTION":14.38915667,"ECCENTRICITY":0.0021414,"INCLINATION":74.046,"RA_OF_ASC_NODE":112.6362,"ARG_OF_PERICENTER":291.898,"MEAN_ANOMALY":184.3804,"EPHEMERIS_TYPE":0,"CLASSIFICATION_TYPE":"U","NORAD_CAT_ID":19257,"ELEMENT_SET_NO":999,"REV_AT_EPOCH":97658,"BSTAR":0.00010511,"MEAN_MOTION_DOT":2.98e-6,"MEAN_MOTION_DDOT":0}]
